[{"OBJECT_NAME":"STARLINK-5994","OBJECT_ID":"2023-064K","EPOCH":"2026-03-09T14:38:24.016416","MEAN_MOTION":14.98326692,"ECCENTRICITY":0.0003007,"INCLINATION":70.0007,"RA_OF_ASC_NODE":144.679,"ARG_OF_PERICENTER":269.9767,"MEAN_ANOMALY":90.1047,"EPHEMERIS_TYPE":0,"CLASSIFICATION_TYPE":"U","NORAD_CAT_ID":56457,"ELEMENT_SET_NO":999,"REV_AT_EPOCH":15523,"BSTAR":-5.1382e-5,"MEAN_MOTION_DOT":-7.06e-6,"MEAN_MOTION_DDOT":0},{"OBJECT_NAME":"FALCON 1 R\/B","OBJECT_ID":"2009-037B","EPOCH":"2026-03-08T17:35:48.909408","MEAN_MOTION":14.88730418,"ECCENTRICITY":0.00374904,"INCLINATION":9.0437,"RA_OF_ASC_NODE":137.3099,"ARG_OF_PERICENTER":171.2098,"MEAN_ANOMALY":188.8755,"EPHEMERIS_TYPE":0,"CLASSIFICATION_TYPE":"U","NORAD_CAT_ID":35579,"ELEMENT_SET_NO":999,"REV_AT_EPOCH":90049,"BSTAR":0.00039887201,"MEAN_MOTION_DOT":4.571e-5,"MEAN_MOTION_DDOT":0}]
